{
    "links": {
        "self": "http://www.neowsapp.com/rest/v1/neo/3781894?api_key=iIulBulltgU6a56xZRHN4H3l9WmuAYTsLGpBGhQ2"
    },
    "id": "3781894",
    "neo_reference_id": "3781894",
    "name": "(2017 SO16)",
    "designation": "2017 SO16",
    "nasa_jpl_url": "http://ssd.jpl.nasa.gov/sbdb.cgi?sstr=3781894",
    "absolute_magnitude_h": 20.7,
    "estimated_diameter": {
        "kilometers": {
            "estimated_diameter_min": 0.1925550782,
            "estimated_diameter_max": 0.4305662442
        },
        "meters": {
            "estimated_diameter_min": 192.5550781879,
            "estimated_diameter_max": 430.566244241
        },
        "miles": {
            "estimated_diameter_min": 0.1196481415,
            "estimated_diameter_max": 0.2675413778
        },
        "feet": {
            "estimated_diameter_min": 631.7424027221,
            "estimated_diameter_max": 1412.6189567557
        }
    },
    "is_potentially_hazardous_asteroid": false,
    "close_approach_data": [
        {
            "close_approach_date": "2017-10-30",
            "close_approach_date_full": "2017-Oct-30 05:24",
            "epoch_date_close_approach": 1509341040000,
            "relative_velocity": {
                "kilometers_per_second": "4.2867904356",
                "kilometers_per_hour": "15432.445567988",
                "miles_per_hour": "9589.1215252868"
            },
            "miss_distance": {
                "astronomical": "0.305340984",
                "lunar": "118.777642776",
                "kilometers": "45678360.83010408",
                "miles": "28383217.272553104"
            },
            "orbiting_body": "Earth"
        }
    ],
    "orbital_data": {
        "orbit_id": "14",
        "orbit_determination_date": "2017-12-20 06:22:10",
        "first_observation_date": "2017-09-24",
        "last_observation_date": "2017-12-20",
        "data_arc_in_days": 87,
        "observations_used": 65,
        "orbit_uncertainty": "5",
        "minimum_orbit_intersection": ".277467",
        "jupiter_tisserand_invariant": "3.415",
        "epoch_osculation": "2459000.5",
        "eccentricity": ".4562637492309699",
        "semi_major_axis": "2.329958232916881",
        "inclination": "7.046107446262377",
        "ascending_node_longitude": "13.35359720408149",
        "orbital_period": "1299.034336680904",
        "perihelion_distance": "1.26688275401466",
        "perihelion_argument": "22.53419540969838",
        "aphelion_distance": "3.393033711819103",
        "perihelion_time": "2459346.197995730296",
        "mean_anomaly": "264.1970832111447",
        "mean_motion": ".2771289332657806",
        "equinox": "J2000",
        "orbit_class": {
            "orbit_class_type": "AMO",
            "orbit_class_description": "Near-Earth asteroid orbits similar to that of 1221 Amor",
            "orbit_class_range": "1.017 AU < q (perihelion) < 1.3 AU"
        }
    },
    "is_sentry_object": false
}